[{"OBJECT_NAME":"STARLINK-36158","OBJECT_ID":"2025-298F","EPOCH":"2026-03-09T21:39:48.216096","MEAN_MOTION":14.98330434,"ECCENTRICITY":0.00024965,"INCLINATION":70.0011,"RA_OF_ASC_NODE":13.7454,"ARG_OF_PERICENTER":273.3529,"MEAN_ANOMALY":86.7344,"EPHEMERIS_TYPE":0,"CLASSIFICATION_TYPE":"U","NORAD_CAT_ID":67080,"ELEMENT_SET_NO":999,"REV_AT_EPOCH":1325,"BSTAR":0.00042338517,"MEAN_MOTION_DOT":4.962e-5,"MEAN_MOTION_DDOT":0},{"OBJECT_NAME":"DUMSAT","OBJECT_ID":"2000-009A","EPOCH":"2026-03-09T21:34:49.034496","MEAN_MOTION":14.97147245,"ECCENTRICITY":0.00231559,"INCLINATION":64.8536,"RA_OF_ASC_NODE":17.131,"ARG_OF_PERICENTER":263.9519,"MEAN_ANOMALY":95.8958,"EPHEMERIS_TYPE":0,"CLASSIFICATION_TYPE":"U","NORAD_CAT_ID":26086,"ELEMENT_SET_NO":999,"REV_AT_EPOCH":42337,"BSTAR":4.8857475e-5,"MEAN_MOTION_DOT":4.04e-6,"MEAN_MOTION_DDOT":0}]
